CCSDS_OMM_VERS = 2.0
CREATION_DATE  = 
ORIGINATOR     = 

OBJECT_NAME    = LEMUR-2-GRAM-E-SUE
OBJECT_ID      = 2026-004H
CENTER_NAME    = EARTH
REF_FRAME      = TEME
TIME_SYSTEM    = UTC
MEAN_ELEMENT_THEORY = SGP/SGP4

EPOCH          = 2026-02-07T23:52:46.797312
MEAN_MOTION    = 14.87478946
ECCENTRICITY   = .0006412
INCLINATION    = 97.7961
RA_OF_ASC_NODE = 39.6745
ARG_OF_PERICENTER = 198.0581
MEAN_ANOMALY   = 162.0408

EPHEMERIS_TYPE = 0
CLASSIFICATION_TYPE = U
NORAD_CAT_ID   = 67370
ELEMENT_SET_NO = 999
REV_AT_EPOCH   = 408
BSTAR          = .68739E-3
MEAN_MOTION_DOT = .6179E-4
MEAN_MOTION_DDOT = 0

CCSDS_OMM_VERS = 2.0
CREATION_DATE  = 
ORIGINATOR     = 

OBJECT_NAME    = UMBRA-12
OBJECT_ID      = 2026-004J
CENTER_NAME    = EARTH
REF_FRAME      = TEME
TIME_SYSTEM    = UTC
MEAN_ELEMENT_THEORY = SGP/SGP4

EPOCH          = 2026-02-07T23:43:08.749344
MEAN_MOTION    = 14.87902031
ECCENTRICITY   = .0005855
INCLINATION    = 97.8002
RA_OF_ASC_NODE = 39.6915
ARG_OF_PERICENTER = 181.9212
MEAN_ANOMALY   = 178.1983

EPHEMERIS_TYPE = 0
CLASSIFICATION_TYPE = U
NORAD_CAT_ID   = 67371
ELEMENT_SET_NO = 999
REV_AT_EPOCH   = 408
BSTAR          = .77153E-3
MEAN_MOTION_DOT = .7016E-4
MEAN_MOTION_DDOT = 0

CCSDS_OMM_VERS = 2.0
CREATION_DATE  = 
ORIGINATOR     = 

OBJECT_NAME    = ICEYE-X63
OBJECT_ID      = 2026-004K
CENTER_NAME    = EARTH
REF_FRAME      = TEME
TIME_SYSTEM    = UTC
MEAN_ELEMENT_THEORY = SGP/SGP4

EPOCH          = 2026-02-07T23:36:36.015552
MEAN_MOTION    = 14.87987380
ECCENTRICITY   = .0004087
INCLINATION    = 97.7982
RA_OF_ASC_NODE = 39.6922
ARG_OF_PERICENTER = 175.9281
MEAN_ANOMALY   = 184.1969

EPHEMERIS_TYPE = 0
CLASSIFICATION_TYPE = U
NORAD_CAT_ID   = 67372
ELEMENT_SET_NO = 999
REV_AT_EPOCH   = 408
BSTAR          = .34584E-3
MEAN_MOTION_DOT = .3119E-4
MEAN_MOTION_DDOT = 0

CCSDS_OMM_VERS = 2.0
CREATION_DATE  = 
ORIGINATOR     = 

OBJECT_NAME    = ICEYE-X64
OBJECT_ID      = 2026-004L
CENTER_NAME    = EARTH
REF_FRAME      = TEME
TIME_SYSTEM    = UTC
MEAN_ELEMENT_THEORY = SGP/SGP4

EPOCH          = 2026-02-07T23:47:02.006016
MEAN_MOTION    = 14.87588201
ECCENTRICITY   = .0005571
INCLINATION    = 97.7996
RA_OF_ASC_NODE = 39.6864
ARG_OF_PERICENTER = 187.9500
MEAN_ANOMALY   = 172.1628

EPHEMERIS_TYPE = 0
CLASSIFICATION_TYPE = U
NORAD_CAT_ID   = 67373
ELEMENT_SET_NO = 999
REV_AT_EPOCH   = 408
BSTAR          = .33829E-3
MEAN_MOTION_DOT = .302E-4
MEAN_MOTION_DDOT = 0

CCSDS_OMM_VERS = 2.0
CREATION_DATE  = 
ORIGINATOR     = 

OBJECT_NAME    = AETHER-3
OBJECT_ID      = 2026-004M
CENTER_NAME    = EARTH
REF_FRAME      = TEME
TIME_SYSTEM    = UTC
MEAN_ELEMENT_THEORY = SGP/SGP4

EPOCH          = 2026-02-07T23:38:08.605248
MEAN_MOTION    = 14.87944104
ECCENTRICITY   = .0004347
INCLINATION    = 97.7980
RA_OF_ASC_NODE = 39.6894
ARG_OF_PERICENTER = 176.6012
MEAN_ANOMALY   = 183.5234

EPHEMERIS_TYPE = 0
CLASSIFICATION_TYPE = U
NORAD_CAT_ID   = 67374
ELEMENT_SET_NO = 999
REV_AT_EPOCH   = 408
BSTAR          = .27371E-3
MEAN_MOTION_DOT = .2455E-4
MEAN_MOTION_DDOT = 0

CCSDS_OMM_VERS = 2.0
CREATION_DATE  = 
ORIGINATOR     = 

OBJECT_NAME    = AETHER-4
OBJECT_ID      = 2026-004N
CENTER_NAME    = EARTH
REF_FRAME      = TEME
TIME_SYSTEM    = UTC
MEAN_ELEMENT_THEORY = SGP/SGP4

EPOCH          = 2026-02-07T22:00:38.132928
MEAN_MOTION    = 14.87965297
ECCENTRICITY   = .0004937
INCLINATION    = 97.8017
RA_OF_ASC_NODE = 39.6347
ARG_OF_PERICENTER = 172.7959
MEAN_ANOMALY   = 187.3330

EPHEMERIS_TYPE = 0
CLASSIFICATION_TYPE = U
NORAD_CAT_ID   = 67375
ELEMENT_SET_NO = 999
REV_AT_EPOCH   = 407
BSTAR          = .28684E-3
MEAN_MOTION_DOT = .2576E-4
MEAN_MOTION_DDOT = 0

CCSDS_OMM_VERS = 2.0
CREATION_DATE  = 
ORIGINATOR     = 

OBJECT_NAME    = AETHER-5
OBJECT_ID      = 2026-004P
CENTER_NAME    = EARTH
REF_FRAME      = TEME
TIME_SYSTEM    = UTC
MEAN_ELEMENT_THEORY = SGP/SGP4

EPOCH          = 2026-02-07T23:41:26.426688
MEAN_MOTION    = 14.87807008
ECCENTRICITY   = .0005259
INCLINATION    = 97.8014
RA_OF_ASC_NODE = 39.6959
ARG_OF_PERICENTER = 178.5982
MEAN_ANOMALY   = 181.5250

EPHEMERIS_TYPE = 0
CLASSIFICATION_TYPE = U
NORAD_CAT_ID   = 67376
ELEMENT_SET_NO = 999
REV_AT_EPOCH   = 408
BSTAR          = .29816E-3
MEAN_MOTION_DOT = .267E-4
MEAN_MOTION_DDOT = 0

CCSDS_OMM_VERS = 2.0
CREATION_DATE  = 
ORIGINATOR     = 

OBJECT_NAME    = AETHER-6
OBJECT_ID      = 2026-004Q
CENTER_NAME    = EARTH
REF_FRAME      = TEME
TIME_SYSTEM    = UTC
MEAN_ELEMENT_THEORY = SGP/SGP4

EPOCH          = 2026-02-08T02:50:41.860320
MEAN_MOTION    = 14.87985532
ECCENTRICITY   = .000494
INCLINATION    = 97.8017
RA_OF_ASC_NODE = 39.8330
ARG_OF_PERICENTER = 171.0640
MEAN_ANOMALY   = 189.0665

EPHEMERIS_TYPE = 0
CLASSIFICATION_TYPE = U
NORAD_CAT_ID   = 67377
ELEMENT_SET_NO = 999
REV_AT_EPOCH   = 409
BSTAR          = .32032E-3
MEAN_MOTION_DOT = .2885E-4
MEAN_MOTION_DDOT = 0

CCSDS_OMM_VERS = 2.0
CREATION_DATE  = 
ORIGINATOR     = 

OBJECT_NAME    = AETHER-7
OBJECT_ID      = 2026-004R
CENTER_NAME    = EARTH
REF_FRAME      = TEME
TIME_SYSTEM    = UTC
MEAN_ELEMENT_THEORY = SGP/SGP4

EPOCH          = 2026-02-07T23:43:21.499392
MEAN_MOTION    = 14.87737780
ECCENTRICITY   = .0004623
INCLINATION    = 97.7988
RA_OF_ASC_NODE = 39.6868
ARG_OF_PERICENTER = 186.3883
MEAN_ANOMALY   = 173.7276

EPHEMERIS_TYPE = 0
CLASSIFICATION_TYPE = U
NORAD_CAT_ID   = 67378
ELEMENT_SET_NO = 999
REV_AT_EPOCH   = 407
BSTAR          = .28945E-3
MEAN_MOTION_DOT = .2586E-4
MEAN_MOTION_DDOT = 0

CCSDS_OMM_VERS = 2.0
CREATION_DATE  = 
ORIGINATOR     = 

OBJECT_NAME    = AETHER-8
OBJECT_ID      = 2026-004S
CENTER_NAME    = EARTH
REF_FRAME      = TEME
TIME_SYSTEM    = UTC
MEAN_ELEMENT_THEORY = SGP/SGP4

EPOCH          = 2026-02-07T23:43:04.621152
MEAN_MOTION    = 14.87746566
ECCENTRICITY   = .0005156
INCLINATION    = 97.7992
RA_OF_ASC_NODE = 39.6892
ARG_OF_PERICENTER = 183.6835
MEAN_ANOMALY   = 176.4344

EPHEMERIS_TYPE = 0
CLASSIFICATION_TYPE = U
NORAD_CAT_ID   = 67379
ELEMENT_SET_NO = 999
REV_AT_EPOCH   = 407
BSTAR          = .27992E-3
MEAN_MOTION_DOT = .2499E-4
MEAN_MOTION_DDOT = 0

CCSDS_OMM_VERS = 2.0
CREATION_DATE  = 
ORIGINATOR     = 

OBJECT_NAME    = AETHER-9
OBJECT_ID      = 2026-004T
CENTER_NAME    = EARTH
REF_FRAME      = TEME
TIME_SYSTEM    = UTC
MEAN_ELEMENT_THEORY = SGP/SGP4

EPOCH          = 2026-02-07T23:40:36.731136
MEAN_MOTION    = 14.87847126
ECCENTRICITY   = .0004662
INCLINATION    = 97.7984
RA_OF_ASC_NODE = 39.6891
ARG_OF_PERICENTER = 182.2682
MEAN_ANOMALY   = 177.8514

EPHEMERIS_TYPE = 0
CLASSIFICATION_TYPE = U
NORAD_CAT_ID   = 67380
ELEMENT_SET_NO = 999
REV_AT_EPOCH   = 407
BSTAR          = .2857E-3
MEAN_MOTION_DOT = .2558E-4
MEAN_MOTION_DDOT = 0

CCSDS_OMM_VERS = 2.0
CREATION_DATE  = 
ORIGINATOR     = 

OBJECT_NAME    = AETHER-10
OBJECT_ID      = 2026-004U
CENTER_NAME    = EARTH
REF_FRAME      = TEME
TIME_SYSTEM    = UTC
MEAN_ELEMENT_THEORY = SGP/SGP4

EPOCH          = 2026-02-07T22:00:03.386304
MEAN_MOTION    = 14.88005343
ECCENTRICITY   = .00051274
INCLINATION    = 97.8021
RA_OF_ASC_NODE = 39.6374
ARG_OF_PERICENTER = 173.4352
MEAN_ANOMALY   = 186.6932

EPHEMERIS_TYPE = 0
CLASSIFICATION_TYPE = U
NORAD_CAT_ID   = 67381
ELEMENT_SET_NO = 999
REV_AT_EPOCH   = 406
BSTAR          = .34418287E-3
MEAN_MOTION_DOT = .3106E-4
MEAN_MOTION_DDOT = 0

