LEMUR-2-GRAM-E-SUE      
1 67370U 26004H   26038.99498608  .00006179  00000+0  68739-3 0  9995
2 67370  97.7961  39.6745 0006412 198.0581 162.0408 14.87478946  4084
UMBRA-12                
1 67371U 26004J   26038.98829571  .00007016  00000+0  77153-3 0  9993
2 67371  97.8002  39.6915 0005855 181.9212 178.1983 14.87902031  4086
ICEYE-X63               
1 67372U 26004K   26038.98375018  .00003119  00000+0  34584-3 0  9997
2 67372  97.7982  39.6922 0004087 175.9281 184.1969 14.87987380  4087
ICEYE-X64               
1 67373U 26004L   26038.99099544  .00003020  00000+0  33829-3 0  9998
2 67373  97.7996  39.6864 0005571 187.9500 172.1628 14.87588201  4082
AETHER-3                
1 67374U 26004M   26038.98482182  .00002455  00000+0  27371-3 0  9998
2 67374  97.7980  39.6894 0004347 176.6012 183.5234 14.87944104  4089
AETHER-4                
1 67375U 26004N   26038.91710802  .00002576  00000+0  28684-3 0  9997
2 67375  97.8017  39.6347 0004937 172.7959 187.3330 14.87965297  4071
AETHER-5                
1 67376U 26004P   26038.98711142  .00002670  00000+0  29816-3 0  9996
2 67376  97.8014  39.6959 0005259 178.5982 181.5250 14.87807008  4089
AETHER-6                
1 67377U 26004Q   26039.11854005  .00002885  00000+0  32032-3 0  9991
2 67377  97.8017  39.8330 0004940 171.0640 189.0665 14.87985532  4096
AETHER-7                
1 67378U 26004R   26038.98844328  .00002586  00000+0  28945-3 0  9999
2 67378  97.7988  39.6868 0004623 186.3883 173.7276 14.87737780  4079
AETHER-8                
1 67379U 26004S   26038.98824793  .00002499  00000+0  27992-3 0  9998
2 67379  97.7992  39.6892 0005156 183.6835 176.4344 14.87746566  4079
AETHER-9                
1 67380U 26004T   26038.98653624  .00002558  00000+0  28570-3 0  9992
2 67380  97.7984  39.6891 0004662 182.2682 177.8514 14.87847126  4075
AETHER-10               
1 67381U 26004U   26038.91670586  .00003106  00000+0  34418-3 0  9990
2 67381  97.8021  39.6374 0005127 173.4352 186.6932 14.88005343  4067
